{
  "type": "FeatureCollection",
  "features": [
    {
      "type": "Feature",
      "properties": {
        "norad_id": 37836,
        "name": "EUTELSAT 16A",
        "group": "eutelsat",
        "lat": 0.05479111987058952,
        "lon": 49.9450798508226,
        "alt_km": 35806.115352047214,
        "timestamp": "2025-12-14T20:40:31.439496+00:00",
        "meta_object_name": "EUTELSAT 16A",
        "meta_object_id": "2011-057A",
        "meta_epoch": "2025-12-14T06:38:43.885248",
        "meta_mean_motion": 1.00272931,
        "meta_eccentricity": 0.00060769,
        "meta_inclination": 0.0609,
        "meta_ra_of_asc_node": 13.8245,
        "meta_arg_of_pericenter": 253.6337,
        "meta_mean_anomaly": 291.4274,
        "meta_ephemeris_type": 0,
        "meta_classification_type": "U",
        "meta_norad_cat_id": 37836,
        "meta_element_set_no": 999,
        "meta_rev_at_epoch": 547,
        "meta_bstar": 0,
        "meta_mean_motion_dot": 1.22e-06,
        "meta_mean_motion_ddot": 0,
        "tle_line1": "1 37836U 11057A   25348.27689682  .00000122  00000+0  00000+0 0  9994",
        "tle_line2": "2 37836   0.0609  13.8245 0006076 253.6337 291.4274  1.00272931  5475"
      },
      "geometry": {
        "type": "Point",
        "coordinates": [
          49.9450798508226,
          0.05479111987058952
        ]
      }
    },
    {
      "type": "Feature",
      "properties": {
        "norad_id": 38992,
        "name": "EUTELSAT 21B",
        "group": "eutelsat",
        "lat": 0.0686568513017859,
        "lon": 55.52481717149675,
        "alt_km": 35797.04195343456,
        "timestamp": "2025-12-14T20:40:31.439508+00:00",
        "meta_object_name": "EUTELSAT 21B",
        "meta_object_id": "2012-062B",
        "meta_epoch": "2025-12-14T06:40:21.230400",
        "meta_mean_motion": 1.0027317,
        "meta_eccentricity": 0.00034091,
        "meta_inclination": 0.0679,
        "meta_ra_of_asc_node": 9.5368,
        "meta_arg_of_pericenter": 263.7345,
        "meta_mean_anomaly": 291.6188,
        "meta_ephemeris_type": 0,
        "meta_classification_type": "U",
        "meta_norad_cat_id": 38992,
        "meta_element_set_no": 999,
        "meta_rev_at_epoch": 4797,
        "meta_bstar": 0,
        "meta_mean_motion_dot": 1.48e-06,
        "meta_mean_motion_ddot": 0,
        "tle_line1": "1 38992U 12062B   25348.27802350  .00000148  00000+0  00000+0 0  9992",
        "tle_line2": "2 38992   0.0679   9.5368 0003409 263.7345 291.6188  1.00273170 47975"
      },
      "geometry": {
        "type": "Point",
        "coordinates": [
          55.52481717149675,
          0.0686568513017859
        ]
      }
    },
    {
      "type": "Feature",
      "properties": {
        "norad_id": 39020,
        "name": "EUTELSAT 70B",
        "group": "eutelsat",
        "lat": 0.07238433557608882,
        "lon": 104.37029560268772,
        "alt_km": 35801.06328275885,
        "timestamp": "2025-12-14T20:40:31.439520+00:00",
        "meta_object_name": "EUTELSAT 70B",
        "meta_object_id": "2012-069A",
        "meta_epoch": "2025-12-14T05:11:22.252128",
        "meta_mean_motion": 1.00270884,
        "meta_eccentricity": 0.00043064,
        "meta_inclination": 0.0615,
        "meta_ra_of_asc_node": 349.3145,
        "meta_arg_of_pericenter": 258.9766,
        "meta_mean_anomaly": 343.1962,
        "meta_ephemeris_type": 0,
        "meta_classification_type": "U",
        "meta_norad_cat_id": 39020,
        "meta_element_set_no": 999,
        "meta_rev_at_epoch": 4765,
        "meta_bstar": 0,
        "meta_mean_motion_dot": -2.6e-07,
        "meta_mean_motion_ddot": 0,
        "tle_line1": "1 39020U 12069A   25348.21622977 -.00000026  00000+0  00000+0 0  9997",
        "tle_line2": "2 39020   0.0615 349.3145 0004306 258.9766 343.1962  1.00270884 47653"
      },
      "geometry": {
        "type": "Point",
        "coordinates": [
          104.37029560268772,
          0.07238433557608882
        ]
      }
    },
    {
      "type": "Feature",
      "properties": {
        "norad_id": 39122,
        "name": "EUTELSAT 117 WEST A",
        "group": "eutelsat",
        "lat": -0.03284475364112456,
        "lon": -82.90521240377812,
        "alt_km": 35774.135379181775,
        "timestamp": "2025-12-14T20:40:31.439533+00:00",
        "meta_object_name": "EUTELSAT 117 WEST A",
        "meta_object_id": "2013-012A",
        "meta_epoch": "2025-12-14T06:00:55.004832",
        "meta_mean_motion": 1.00272102,
        "meta_eccentricity": 0.00028413,
        "meta_inclination": 0.0187,
        "meta_ra_of_asc_node": 25.5641,
        "meta_arg_of_pericenter": 241.4005,
        "meta_mean_anomaly": 149.6297,
        "meta_ephemeris_type": 0,
        "meta_classification_type": "U",
        "meta_norad_cat_id": 39122,
        "meta_element_set_no": 999,
        "meta_rev_at_epoch": 4657,
        "meta_bstar": 0,
        "meta_mean_motion_dot": 5e-08,
        "meta_mean_motion_ddot": 0,
        "tle_line1": "1 39122U 13012A   25348.25063663  .00000005  00000+0  00000+0 0  9990",
        "tle_line2": "2 39122   0.0187  25.5641 0002841 241.4005 149.6297  1.00272102 46574"
      },
      "geometry": {
        "type": "Point",
        "coordinates": [
          -82.90521240377812,
          -0.03284475364112456
        ]
      }
    },
    {
      "type": "Feature",
      "properties": {
        "norad_id": 39163,
        "name": "EUTELSAT 7B",
        "group": "eutelsat",
        "lat": 0.03993629527453596,
        "lon": 40.95679590415909,
        "alt_km": 35782.72348574463,
        "timestamp": "2025-12-14T20:40:31.439546+00:00",
        "meta_object_name": "EUTELSAT 7B",
        "meta_object_id": "2013-022A",
        "meta_epoch": "2025-12-14T06:36:14.123808",
        "meta_mean_motion": 1.00273653,
        "meta_eccentricity": 0.00046628,
        "meta_inclination": 0.0757,
        "meta_ra_of_asc_node": 23.8989,
        "meta_arg_of_pericenter": 295.398,
        "meta_mean_anomaly": 229.963,
        "meta_ephemeris_type": 0,
        "meta_classification_type": "U",
        "meta_norad_cat_id": 39163,
        "meta_element_set_no": 999,
        "meta_rev_at_epoch": 4610,
        "meta_bstar": 0,
        "meta_mean_motion_dot": 6.6e-07,
        "meta_mean_motion_ddot": 0,
        "tle_line1": "1 39163U 13022A   25348.27516347  .00000066  00000+0  00000+0 0  9997",
        "tle_line2": "2 39163   0.0757  23.8989 0004662 295.3980 229.9630  1.00273653 46105"
      },
      "geometry": {
        "type": "Point",
        "coordinates": [
          40.95679590415909,
          0.03993629527453596
        ]
      }
    },
    {
      "type": "Feature",
      "properties": {
        "norad_id": 39612,
        "name": "EXPRESS-AT1",
        "group": "eutelsat",
        "lat": 0.03859244587924328,
        "lon": 89.887639161358,
        "alt_km": 35784.47279211688,
        "timestamp": "2025-12-14T20:40:31.439558+00:00",
        "meta_object_name": "EXPRESS-AT1",
        "meta_object_id": "2014-010A",
        "meta_epoch": "2025-12-14T10:15:41.842368",
        "meta_mean_motion": 1.00273481,
        "meta_eccentricity": 3.13e-05,
        "meta_inclination": 0.0196,
        "meta_ra_of_asc_node": 344.8805,
        "meta_arg_of_pericenter": 139.4475,
        "meta_mean_anomaly": 168.9347,
        "meta_ephemeris_type": 0,
        "meta_classification_type": "U",
        "meta_norad_cat_id": 39612,
        "meta_element_set_no": 999,
        "meta_rev_at_epoch": 4296,
        "meta_bstar": 0,
        "meta_mean_motion_dot": 0,
        "meta_mean_motion_ddot": 0,
        "tle_line1": "1 39612U 14010A   25348.42756762  .00000000  00000+0  00000+0 0  9996",
        "tle_line2": "2 39612   0.0196 344.8805 0000313 139.4475 168.9347  1.00273481 42966"
      },
      "geometry": {
        "type": "Point",
        "coordinates": [
          89.887639161358,
          0.03859244587924328
        ]
      }
    },
    {
      "type": "Feature",
      "properties": {
        "norad_id": 39613,
        "name": "EXPRESS-AT2",
        "group": "eutelsat",
        "lat": -0.01731699100062663,
        "lon": 173.72809677905386,
        "alt_km": 35789.698269590204,
        "timestamp": "2025-12-14T20:40:31.439570+00:00",
        "meta_object_name": "EXPRESS-AT2",
        "meta_object_id": "2014-010B",
        "meta_epoch": "2025-12-14T03:48:30.188736",
        "meta_mean_motion": 1.0027039,
        "meta_eccentricity": 0.00013149,
        "meta_inclination": 0.0172,
        "meta_ra_of_asc_node": 322.2953,
        "meta_arg_of_pericenter": 336.2358,
        "meta_mean_anomaly": 341.5254,
        "meta_ephemeris_type": 0,
        "meta_classification_type": "U",
        "meta_norad_cat_id": 39613,
        "meta_element_set_no": 999,
        "meta_rev_at_epoch": 4264,
        "meta_bstar": 0,
        "meta_mean_motion_dot": -2.64e-06,
        "meta_mean_motion_ddot": 0,
        "tle_line1": "1 39613U 14010B   25348.15868274 -.00000264  00000+0  00000+0 0  9992",
        "tle_line2": "2 39613   0.0172 322.2953 0001314 336.2358 341.5254  1.00270390 42641"
      },
      "geometry": {
        "type": "Point",
        "coordinates": [
          173.72809677905386,
          -0.01731699100062663
        ]
      }
    }
  ]
}